start=new Date('2022-11-15T00:00:00.000Z').valueOf();
sats=[{"GP_ID":"217788171","PERIOD":"94.105","PERIAPSIS":"474.196","FILE":"3656014","INCLINATION":"53.2174","OBJECT_NAME":"STARLINK-4764","REV_AT_EPOCH":"130","ELEMENT_SET_NO":"999","ECCENTRICITY":"0.00014550","CENTER_NAME":"EARTH","ARG_OF_PERICENTER":"46.0954","LAUNCH_DATE":"2022-09-19","SITE":"AFETR","RA_OF_ASC_NODE":"340.2000","SEMIMAJOR_AXIS":"6853.328","OBJECT_ID":"2022-114K","MEAN_ANOMALY":"22.6241","EPOCH":"2022-11-14T22:00:00.999936","TLE_LINE1":"1 53827U 22114K   22318.91667824 -.01135220  00000-0 -42026-1 0  9995","MEAN_MOTION_DDOT":"0.0000000000000","MEAN_ELEMENT_THEORY":"SGP4","RCS_SIZE":"LARGE","MEAN_MOTION":"15.30208051","TIME_SYSTEM":"UTC","DECAY_DATE":null,"OBJECT_TYPE":"PAYLOAD","COUNTRY_CODE":"US","TLE_LINE2":"2 53827  53.2174 340.2000 0001455  46.0954  22.6241 15.30208051  1307","EPHEMERIS_TYPE":"0","CLASSIFICATION_TYPE":"U","REF_FRAME":"TEME","NORAD_CAT_ID":"53827","BSTAR":"-0.04202600000000","APOAPSIS":"476.190","MEAN_MOTION_DOT":"-0.01135220"},{"NORAD_CAT_ID":"53828","CLASSIFICATION_TYPE":"U","REF_FRAME":"TEME","BSTAR":"-0.04050900000000","APOAPSIS":"472.893","MEAN_MOTION_DOT":"-0.01136140","MEAN_MOTION":"15.31408248","TIME_SYSTEM":"UTC","DECAY_DATE":null,"COUNTRY_CODE":"US","OBJECT_TYPE":"PAYLOAD","TLE_LINE2":"2 53828  53.2174 340.1188 0001870  33.5500  76.3600 15.31408248  1309","EPHEMERIS_TYPE":"0","LAUNCH_DATE":"2022-09-19","SITE":"AFETR","RA_OF_ASC_NODE":"340.1188","SEMIMAJOR_AXIS":"6849.747","OBJECT_ID":"2022-114L","MEAN_ANOMALY":"76.3600","TLE_LINE1":"1 53828U 22114L   22318.91667824 -.01136140  00000-0 -40509-1 0  9992","EPOCH":"2022-11-14T22:00:00.999936","MEAN_MOTION_DDOT":"0.0000000000000","RCS_SIZE":"LARGE","MEAN_ELEMENT_THEORY":"SGP4","GP_ID":"217787636","PERIOD":"94.031","PERIAPSIS":"470.331","FILE":"3656014","INCLINATION":"53.2174","OBJECT_NAME":"STARLINK-4760","ELEMENT_SET_NO":"999","ECCENTRICITY":"0.00018700","CENTER_NAME":"EARTH","REV_AT_EPOCH":"130","ARG_OF_PERICENTER":"33.5500"},{"PERIAPSIS":"473.278","PERIOD":"94.086","GP_ID":"217788635","ARG_OF_PERICENTER":"45.6976","REV_AT_EPOCH":"130","ELEMENT_SET_NO":"999","ECCENTRICITY":"0.00014860","CENTER_NAME":"EARTH","OBJECT_NAME":"STARLINK-4759","FILE":"3656014","INCLINATION":"53.2174","SEMIMAJOR_AXIS":"6852.431","OBJECT_ID":"2022-114M","SITE":"AFETR","RA_OF_ASC_NODE":"340.1792","LAUNCH_DATE":"2022-09-19","MEAN_ELEMENT_THEORY":"SGP4","RCS_SIZE":"LARGE","MEAN_MOTION_DDOT":"0.0000000000000","EPOCH":"2022-11-14T22:00:00.999936","TLE_LINE1":"1 53829U 22114M   22318.91667824 -.01135531  00000-0 -41646-1 0  9999","MEAN_ANOMALY":"33.5062","OBJECT_TYPE":"PAYLOAD","COUNTRY_CODE":"US","TIME_SYSTEM":"UTC","DECAY_DATE":null,"MEAN_MOTION":"15.30508542","EPHEMERIS_TYPE":"0","TLE_LINE2":"2 53829  53.2174 340.1792 0001486  45.6976  33.5062 15.30508542  1309","BSTAR":"-0.04164600000000","REF_FRAME":"TEME","CLASSIFICATION_TYPE":"U","NORAD_CAT_ID":"53829","MEAN_MOTION_DOT":"-0.01135531","APOAPSIS":"475.314"},{"MEAN_MOTION_DOT":"-0.01136541","APOAPSIS":"470.933","BSTAR":"-0.03976800000000","REF_FRAME":"TEME","CLASSIFICATION_TYPE":"U","NORAD_CAT_ID":"53830","EPHEMERIS_TYPE":"0","TLE_LINE2":"2 53830  53.2173 340.0796 0001624  44.5136  85.1747 15.32008993  1303","DECAY_DATE":null,"TIME_SYSTEM":"UTC","OBJECT_TYPE":"PAYLOAD","COUNTRY_CODE":"US","MEAN_MOTION":"15.32008993","MEAN_MOTION_DDOT":"0.0000000000000","MEAN_ELEMENT_THEORY":"SGP4","RCS_SIZE":"LARGE","MEAN_ANOMALY":"85.1747","EPOCH":"2022-11-14T22:00:00.999936","TLE_LINE1":"1 53830U 22114N   22318.91667824 -.01136541  00000-0 -39768-1 0  9995","OBJECT_ID":"2022-114N","SEMIMAJOR_AXIS":"6847.956","LAUNCH_DATE":"2022-09-19","RA_OF_ASC_NODE":"340.0796","SITE":"AFETR","REV_AT_EPOCH":"130","ELEMENT_SET_NO":"999","CENTER_NAME":"EARTH","ECCENTRICITY":"0.00016240","ARG_OF_PERICENTER":"44.5136","FILE":"3656014","INCLINATION":"53.2173","OBJECT_NAME":"STARLINK-4761","PERIAPSIS":"468.709","GP_ID":"217787466","PERIOD":"93.994"},{"MEAN_MOTION_DDOT":"0.0000000000000","RCS_SIZE":"LARGE","MEAN_ELEMENT_THEORY":"SGP4","MEAN_ANOMALY":"247.3106","TLE_LINE1":"1 53831U 22114P   22319.08334491 -.01135413  00000-0 -41778-1 0  9997","EPOCH":"2022-11-15T02:00:01.000224","SEMIMAJOR_AXIS":"6852.748","OBJECT_ID":"2022-114P","LAUNCH_DATE":"2022-09-19","SITE":"AFETR","RA_OF_ASC_NODE":"339.3852","ELEMENT_SET_NO":"999","ECCENTRICITY":"0.00016630","CENTER_NAME":"EARTH","REV_AT_EPOCH":"951","ARG_OF_PERICENTER":"41.1303","INCLINATION":"53.2176","FILE":"3656205","OBJECT_NAME":"STARLINK-4649","PERIAPSIS":"473.474","GP_ID":"217793412","PERIOD":"94.093","MEAN_MOTION_DOT":"-0.01135413","APOAPSIS":"475.753","BSTAR":"-0.04177800000000","REF_FRAME":"TEME","CLASSIFICATION_TYPE":"U","NORAD_CAT_ID":"53831","EPHEMERIS_TYPE":"0","TLE_LINE2":"2 53831  53.2176 339.3852 0001663  41.1303 247.3106 15.30402273  9512","DECAY_DATE":null,"TIME_SYSTEM":"UTC","COUNTRY_CODE":"US","OBJECT_TYPE":"PAYLOAD","MEAN_MOTION":"15.30402273"},{"BSTAR":"-0.03901800000000","REF_FRAME":"TEME","CLASSIFICATION_TYPE":"U","NORAD_CAT_ID":"53832","MEAN_MOTION_DOT":"-0.01136522","APOAPSIS":"469.328","OBJECT_TYPE":"PAYLOAD","COUNTRY_CODE":"US","TIME_SYSTEM":"UTC","DECAY_DATE":null,"MEAN_MOTION":"15.32609148","EPHEMERIS_TYPE":"0","TLE_LINE2":"2 53832  53.2173 340.0414 0001891  35.4828 113.4616 15.32609148  1304","SEMIMAJOR_AXIS":"6846.168","OBJECT_ID":"2022-114Q","SITE":"AFETR","RA_OF_ASC_NODE":"340.0414","LAUNCH_DATE":"2022-09-19","MEAN_ELEMENT_THEORY":"SGP4","RCS_SIZE":"LARGE","MEAN_MOTION_DDOT":"0.0000000000000","EPOCH":"2022-11-14T22:00:00.999936","TLE_LINE1":"1 53832U 22114Q   22318.91667824 -.01136522  00000-0 -39018-1 0  9994","MEAN_ANOMALY":"113.4616","PERIAPSIS":"466.739","PERIOD":"93.957","GP_ID":"217788002","ARG_OF_PERICENTER":"35.4828","REV_AT_EPOCH":"130","ELEMENT_SET_NO":"999","ECCENTRICITY":"0.00018910","CENTER_NAME":"EARTH","OBJECT_NAME":"STARLINK-4747","FILE":"3656014","INCLINATION":"53.2173"},{"REV_AT_EPOCH":"951","ELEMENT_SET_NO":"999","ECCENTRICITY":"0.00012530","CENTER_NAME":"EARTH","ARG_OF_PERICENTER":"66.8597","FILE":"3656205","INCLINATION":"53.2176","OBJECT_NAME":"STARLINK-4771","PERIAPSIS":"471.069","GP_ID":"217793418","PERIOD":"94.038","MEAN_MOTION_DDOT":"0.0000000000000","MEAN_ELEMENT_THEORY":"SGP4","RCS_SIZE":"LARGE","MEAN_ANOMALY":"252.4061","EPOCH":"2022-11-15T02:00:01.000224","TLE_LINE1":"1 53833U 22114R   22319.08334491 -.01135672  00000-0 -40631-1 0  9993","SEMIMAJOR_AXIS":"6850.062","OBJECT_ID":"2022-114R","LAUNCH_DATE":"2022-09-19","RA_OF_ASC_NODE":"339.3241","SITE":"AFETR","EPHEMERIS_TYPE":"0","TLE_LINE2":"2 53833  53.2176 339.3241 0001253  66.8597 252.4061 15.31302562  9518","DECAY_DATE":null,"TIME_SYSTEM":"UTC","OBJECT_TYPE":"PAYLOAD","COUNTRY_CODE":"US","MEAN_MOTION":"15.31302562","MEAN_MOTION_DOT":"-0.01135672","APOAPSIS":"472.785","BSTAR":"-0.04063100000000","REF_FRAME":"TEME","CLASSIFICATION_TYPE":"U","NORAD_CAT_ID":"53833"},{"PERIAPSIS":"465.103","GP_ID":"217787833","PERIOD":"93.921","ELEMENT_SET_NO":"999","ECCENTRICITY":"0.00016730","CENTER_NAME":"EARTH","REV_AT_EPOCH":"130","ARG_OF_PERICENTER":"44.7729","FILE":"3656014","INCLINATION":"53.2172","OBJECT_NAME":"STARLINK-4737","SEMIMAJOR_AXIS":"6844.383","OBJECT_ID":"2022-114S","LAUNCH_DATE":"2022-09-19","RA_OF_ASC_NODE":"340.0042","SITE":"AFETR","MEAN_MOTION_DDOT":"0.0000000000000","RCS_SIZE":"LARGE","MEAN_ELEMENT_THEORY":"SGP4","MEAN_ANOMALY":"122.9137","TLE_LINE1":"1 53834U 22114S   22318.91667824 -.01136632  00000-0 -38289-1 0  9997","EPOCH":"2022-11-14T22:00:00.999936","DECAY_DATE":null,"TIME_SYSTEM":"UTC","COUNTRY_CODE":"US","OBJECT_TYPE":"PAYLOAD","MEAN_MOTION":"15.33208915","EPHEMERIS_TYPE":"0","TLE_LINE2":"2 53834  53.2172 340.0042 0001673  44.7729 122.9137 15.33208915  1304","BSTAR":"-0.03828900000000","CLASSIFICATION_TYPE":"U","NORAD_CAT_ID":"53834","REF_FRAME":"TEME","MEAN_MOTION_DOT":"-0.01136632","APOAPSIS":"467.393"},{"COUNTRY_CODE":"US","OBJECT_TYPE":"PAYLOAD","TIME_SYSTEM":"UTC","DECAY_DATE":null,"MEAN_MOTION":"15.31902808","EPHEMERIS_TYPE":"0","TLE_LINE2":"2 53835  53.2176 339.2847 0001594  39.1020 300.0430 15.31902808  9512","BSTAR":"-0.03988100000000","CLASSIFICATION_TYPE":"U","REF_FRAME":"TEME","NORAD_CAT_ID":"53835","MEAN_MOTION_DOT":"-0.01136005","APOAPSIS":"471.229","PERIAPSIS":"469.046","PERIOD":"94.001","GP_ID":"217793423","ARG_OF_PERICENTER":"39.1020","ELEMENT_SET_NO":"999","ECCENTRICITY":"0.00015940","CENTER_NAME":"EARTH","REV_AT_EPOCH":"951","OBJECT_NAME":"STARLINK-4783","FILE":"3656205","INCLINATION":"53.2176","OBJECT_ID":"2022-114T","SEMIMAJOR_AXIS":"6848.273","RA_OF_ASC_NODE":"339.2847","SITE":"AFETR","LAUNCH_DATE":"2022-09-19","RCS_SIZE":"LARGE","MEAN_ELEMENT_THEORY":"SGP4","MEAN_MOTION_DDOT":"0.0000000000000","TLE_LINE1":"1 53835U 22114T   22319.08334491 -.01136005  00000-0 -39881-1 0  9991","EPOCH":"2022-11-15T02:00:01.000224","MEAN_ANOMALY":"300.0430"},{"MEAN_MOTION":"15.73272411","OBJECT_TYPE":"PAYLOAD","COUNTRY_CODE":"US","TIME_SYSTEM":"UTC","DECAY_DATE":null,"TLE_LINE2":"2 53836  53.2163 337.3302 0004057   3.3669  52.1981 15.73272411  1304","EPHEMERIS_TYPE":"0","CLASSIFICATION_TYPE":"U","REF_FRAME":"TEME","NORAD_CAT_ID":"53836","BSTAR":"-0.00124960000000","APOAPSIS":"352.283","MEAN_MOTION_DOT":"-0.00173082","PERIOD":"91.529","GP_ID":"217787637","PERIAPSIS":"346.824","OBJECT_NAME":"STARLINK-4778","FILE":"3656014","INCLINATION":"53.2163","ARG_OF_PERICENTER":"3.3669","REV_AT_EPOCH":"130","ELEMENT_SET_NO":"999","CENTER_NAME":"EARTH","ECCENTRICITY":"0.00040570","SITE":"AFETR","RA_OF_ASC_NODE":"337.3302","LAUNCH_DATE":"2022-09-19","SEMIMAJOR_AXIS":"6727.689","OBJECT_ID":"2022-114U","EPOCH":"2022-11-14T22:00:00.999936","TLE_LINE1":"1 53836U 22114U   22318.91667824 -.00173082  00000-0 -12496-2 0  9991","MEAN_ANOMALY":"52.1981","MEAN_ELEMENT_THEORY":"SGP4","RCS_SIZE":"LARGE","MEAN_MOTION_DDOT":"0.0000000000000"}];
